[{"OBJECT_NAME":"ONEWEB-0109","OBJECT_ID":"2020-100B","EPOCH":"2026-03-09T21:09:34.717248","MEAN_MOTION":13.12443177,"ECCENTRICITY":0.0001945,"INCLINATION":87.9006,"RA_OF_ASC_NODE":10.3656,"ARG_OF_PERICENTER":80.9717,"MEAN_ANOMALY":279.1632,"EPHEMERIS_TYPE":0,"CLASSIFICATION_TYPE":"U","NORAD_CAT_ID":47259,"ELEMENT_SET_NO":999,"REV_AT_EPOCH":25153,"BSTAR":0.00029604814,"MEAN_MOTION_DOT":1.19e-6,"MEAN_MOTION_DDOT":0},{"OBJECT_NAME":"DELTA 1 DEB","OBJECT_ID":"1975-052FF","EPOCH":"2026-03-09T09:31:34.161024","MEAN_MOTION":13.57601208,"ECCENTRICITY":0.02491359,"INCLINATION":99.9369,"RA_OF_ASC_NODE":224.0728,"ARG_OF_PERICENTER":239.4771,"MEAN_ANOMALY":146.5791,"EPHEMERIS_TYPE":0,"CLASSIFICATION_TYPE":"U","NORAD_CAT_ID":21471,"ELEMENT_SET_NO":999,"REV_AT_EPOCH":72291,"BSTAR":0.00072400564,"MEAN_MOTION_DOT":5.88e-6,"MEAN_MOTION_DDOT":0}]
